NORAD_CAT_ID,OBJECT_NAME,OBJECT_TYPE,EPOCH,MEAN_MOTION,ECCENTRICITY,INCLINATION,RA_OF_ASC_NODE,ARG_OF_PERICENTER,MEAN_ANOMALY,BSTAR,MEAN_MOTION_DOT,MEAN_MOTION_DDOT,TLE_LINE0,TLE_LINE1,TLE_LINE2,SEMIMAJOR_AXIS,PERIOD,APOGEE,PERIGEE,DECAYED
55653.0,STARLINK-5067,PAYLOAD,2024-05-28 02:25:52,14.98330791,0.0003399,70.0008,24.6573,274.6537,85.4234,-6.9348e-05,-9.2e-06,0.0,0 STARLINK-5067,1 55653U 23021AB  24149.10129813 -.00000920  00000-0 -69348-4 0  9994,2 55653  70.0008  24.6573 0003399 274.6537  85.4234 14.98330791 71342,6950.19,96.107,574.418,569.693,0.0
55653.0,STARLINK-5067,PAYLOAD,2024-05-28 20:03:20,14.98334338,0.0003495,70.0008,22.8056,275.7444,84.3316,0.00019352,2.217e-05,0.0,0 STARLINK-5067,1 55653U 23021AB  24149.83565757  .00002217  00000-0  19352-3 0  9993,2 55653  70.0008  22.8056 0003495 275.7444  84.3316 14.98334338 71153,6950.179,96.107,574.474,569.615,0.0
55653.0,STARLINK-5067,PAYLOAD,2024-05-28 21:39:28,14.98335096,0.0003472,70.0009,22.6372,275.6103,84.466,0.0002327,2.685e-05,0.0,0 STARLINK-5067,1 55653U 23021AB  24149.90241747  .00002685  00000-0  23270-3 0  9994,2 55653  70.0009  22.6372 0003472 275.6103  84.4660 14.98335096 71468,6950.177,96.107,574.455,569.629,0.0
55653.0,STARLINK-5067,PAYLOAD,2024-05-29 02:27:52,14.98340841,0.0003431,70.0009,22.132,270.9774,89.0992,0.00043446,5.096e-05,0.0,0 STARLINK-5067,1 55653U 23021AB  24150.10269494  .00005096  00000-0  43446-3 0  9993,2 55653  70.0009  22.1320 0003431 270.9774  89.0992 14.98340841 71499,6950.159,96.106,574.409,569.64,0.0
55653.0,STARLINK-5067,PAYLOAD,2024-05-29 20:05:21,14.9833237,0.0003155,70.0019,20.2815,262.4147,97.6654,0.00031942,3.721e-05,0.0,0 STARLINK-5067,1 55653U 23021AB  24150.83705997  .00003721  00000-0  31942-3 0  9997,2 55653  70.0019  20.2815 0003155 262.4147  97.6654 14.98332370 71309,6950.186,96.107,574.243,569.858,0.0
55653.0,STARLINK-5067,PAYLOAD,2024-05-30 00:53:46,14.98332783,0.0003143,70.002,19.776,266.31,93.7699,0.00022979,2.65e-05,0.0,0 STARLINK-5067,1 55653U 23021AB  24151.03733943  .00002650  00000-0  22979-3 0  9992,2 55653  70.0020  19.7760 0003143 266.3100  93.7699 14.98332783 71632,6950.184,96.107,574.234,569.865,0.0
55653.0,STARLINK-5067,PAYLOAD,2024-05-30 20:07:22,14.98342,0.0003165,70.0015,17.7556,264.3783,95.7015,0.00028102,3.263e-05,0.0,0 STARLINK-5067,1 55653U 23021AB  24151.83845448  .00003263  00000-0  28102-3 0  9999,2 55653  70.0015  17.7556 0003165 264.3783  95.7015 14.98342000 71453,6950.156,96.106,574.221,569.821,0.0
55653.0,STARLINK-5067,PAYLOAD,2024-05-30 21:43:30,14.98341878,0.0003163,70.0014,17.5872,264.4044,95.6754,0.00027038,3.136e-05,0.0,0 STARLINK-5067,1 55653U 23021AB  24151.90521412  .00003136  00000-0  27038-3 0  9995,2 55653  70.0014  17.5872 0003163 264.4044  95.6754 14.98341878 71765,6950.156,96.106,574.219,569.823,0.0
55653.0,STARLINK-5067,PAYLOAD,2024-05-31 00:55:46,14.98341337,0.0003189,70.0014,17.2498,265.3072,94.7723,0.00029496,3.429e-05,0.0,0 STARLINK-5067,1 55653U 23021AB  24152.03873330  .00003429  00000-0  29496-3 0  9994,2 55653  70.0014  17.2498 0003189 265.3072  94.7723 14.98341337 71783,6950.158,96.106,574.239,569.806,0.0
55653.0,STARLINK-5067,PAYLOAD,2024-05-31 20:09:23,14.98335014,0.0003248,70.001,15.2303,267.515,92.5637,0.00013637,1.535e-05,0.0,0 STARLINK-5067,1 55653U 23021AB  24152.83985394  .00001535  00000-0  13637-3 0  9992,2 55653  70.0010  15.2303 0003248 267.5150  92.5637 14.98335014 71605,6950.177,96.107,574.3,569.785,0.0
55653.0,STARLINK-5067,PAYLOAD,2024-05-31 21:45:31,14.9833477,0.0003249,70.0011,15.0619,267.4135,92.6652,0.00010958,1.215e-05,0.0,0 STARLINK-5067,1 55653U 23021AB  24152.90661385  .00001215  00000-0  10958-3 0  9999,2 55653  70.0011  15.0619 0003249 267.4135  92.6652 14.98334770 71917,6950.178,96.107,574.301,569.785,0.0
55653.0,STARLINK-5067,PAYLOAD,2024-06-01 00:57:47,14.98335788,0.0003248,69.9995,14.7253,266.9073,93.1714,0.00012932,1.451e-05,0.0,0 STARLINK-5067,1 55653U 23021AB  24153.04013329  .00001451  00000-0  12932-3 0  9990,2 55653  69.9995  14.7253 0003248 266.9073  93.1714 14.98335788 71936,6950.175,96.107,574.297,569.783,0.0
55653.0,STARLINK-5067,PAYLOAD,2024-06-01 20:11:24,14.98331713,0.0003115,69.9997,12.705,267.5163,92.564,9.5351e-06,2.1e-07,0.0,0 STARLINK-5067,1 55653U 23021AB  24153.84125682  .00000021  00000-0  95351-5 0  9994,2 55653  69.9997  12.7050 0003115 267.5163  92.5640 14.98331713 71756,6950.188,96.107,574.218,569.888,0.0
55653.0,STARLINK-5067,PAYLOAD,2024-06-02 07:24:20,14.98332269,0.0003097,69.9999,11.5267,268.2981,91.7823,2.5162e-05,2.07e-06,0.0,0 STARLINK-5067,1 55653U 23021AB  24154.30857532  .00000207  00000-0  25162-4 0  9990,2 55653  69.9999  11.5267 0003097 268.2981  91.7823 14.98332269 72123,6950.186,96.107,574.203,569.898,0.0
55653.0,STARLINK-5067,PAYLOAD,2024-06-03 01:01:49,14.98333488,0.0003038,70.0001,9.6759,269.0394,91.0417,8.9501e-05,9.75e-06,0.0,0 STARLINK-5067,1 55653U 23021AB  24155.04293315  .00000975  00000-0  89501-4 0  9994,2 55653  70.0001   9.6759 0003038 269.0394  91.0417 14.98333488 71930,6950.182,96.107,574.159,569.936,0.0
55653.0,STARLINK-5067,PAYLOAD,2024-06-03 20:15:25,14.98338998,0.0003624,69.9996,7.6557,270.9794,89.095,0.00019761,2.266e-05,0.0,0 STARLINK-5067,1 55653U 23021AB  24155.84404437  .00002266  00000-0  19761-3 0  9996,2 55653  69.9996   7.6557 0003624 270.9794  89.0950 14.98338998 72357,6950.165,96.106,574.549,569.511,0.0
55653.0,STARLINK-5067,PAYLOAD,2024-06-04 01:03:49,14.98345602,0.0002961,70.0003,7.1511,268.9745,91.1075,0.00025939,3.005e-05,0.0,0 STARLINK-5067,1 55653U 23021AB  24156.04431861  .00003005  00000-0  25939-3 0  9996,2 55653  70.0003   7.1511 0002961 268.9745  91.1075 14.98345602 72082,6950.145,96.106,574.068,569.952,0.0
55653.0,STARLINK-5067,PAYLOAD,2024-06-04 07:28:22,14.98336679,0.0003259,70.0003,6.4757,275.0161,85.0626,0.00010367,1.144e-05,0.0,0 STARLINK-5067,1 55653U 23021AB  24156.31136630  .00001144  00000-0  10367-3 0  9993,2 55653  70.0003   6.4757 0003259 275.0161  85.0626 14.98336679 72121,6950.172,96.107,574.302,569.772,0.0
55653.0,STARLINK-5067,PAYLOAD,2024-06-04 20:17:27,14.98327706,0.0003381,69.9993,5.1294,268.485,91.5922,-0.00010602,-1.358e-05,0.0,0 STARLINK-5067,1 55653U 23021AB  24156.84545649 -.00001358  00000-0 -10602-3 0  9996,2 55653  69.9993   5.1294 0003381 268.4850  91.5922 14.98327706 72206,6950.2,96.107,574.415,569.715,0.0
55653.0,STARLINK-5067,PAYLOAD,2024-06-04 23:29:43,14.98330081,0.00031,69.9956,4.7927,269.9477,90.1327,-0.00010513,-1.347e-05,0.0,0 STARLINK-5067,1 55653U 23021AB  24156.97897579 -.00001347  00000-0 -10513-3 0  9991,2 55653  69.9956   4.7927 0003100 269.9477  90.1327 14.98330081 72522,6950.193,96.107,574.212,569.903,0.0
55653.0,STARLINK-5067,PAYLOAD,2024-06-05 20:19:28,14.98318788,0.0002964,70.0001,2.6051,270.0024,90.0795,7.8395e-05,8.42e-06,0.0,0 STARLINK-5067,1 55653U 23021AB  24157.84685867  .00000842  00000-0  78395-4 0  9993,2 55653  70.0001   2.6051 0002964 270.0024  90.0795 14.98318788 72358,6950.228,96.108,574.153,570.033,0.0
55653.0,STARLINK-5067,PAYLOAD,2024-06-05 23:31:45,14.98298205,0.0002523,70.0009,2.2683,272.1831,87.9039,0.00051282,6.026e-05,0.0,0 STARLINK-5067,1 55653U 23021AB  24157.98038352  .00006026  00000-0  51282-3 0  9994,2 55653  70.0009   2.2683 0002523 272.1831  87.9039 14.98298205 72372,6950.291,96.109,573.91,570.403,0.0
55653.0,STARLINK-5067,PAYLOAD,2024-06-06 07:32:22,14.98391499,0.0002931,70.0016,1.4268,269.9445,90.1378,-0.0010872,-0.00013062,0.0,0 STARLINK-5067,1 55653U 23021AB  24158.31415509 -.00013062  00000-0 -10872-2 0  9994,2 55653  70.0016   1.4268 0002931 269.9445  90.1378 14.98391499 72425,6950.003,96.103,573.905,569.831,0.0
55653.0,STARLINK-5067,PAYLOAD,2024-06-07 21:59:37,14.98338893,0.0003351,70.0002,357.3871,270.7489,89.3286,0.00012245,1.369e-05,0.0,0 STARLINK-5067,1 55653U 23021AB  24159.91640678  .00001369  00000-0  12245-3 0  9990,2 55653  70.0002 357.3871 0003351 270.7489  89.3286 14.98338893 72964,6950.165,96.106,574.359,569.701,0.0
55653.0,STARLINK-5067,PAYLOAD,2024-06-07 23:35:45,14.98338104,0.0003449,69.9986,357.2184,270.4436,89.6328,0.00016631,1.892e-05,0.0,0 STARLINK-5067,1 55653U 23021AB  24159.98316929  .00001892  00000-0  16631-3 0  9990,2 55653  69.9986 357.2184 0003449 270.4436  89.6328 14.98338104 72678,6950.168,96.106,574.43,569.636,0.0
55653.0,STARLINK-5067,PAYLOAD,2024-06-08 06:00:18,14.98335769,0.0003475,69.9989,356.5449,270.6394,89.4366,0.00011938,1.332e-05,0.0,0 STARLINK-5067,1 55653U 23021AB  24160.25021065  .00001332  00000-0  11938-3 0  9990,2 55653  69.9989 356.5449 0003475 270.6394  89.4366 14.98335769 73014,6950.175,96.107,574.455,569.625,0.0
55653.0,STARLINK-5067,PAYLOAD,2024-06-08 17:13:14,14.98335773,0.0003303,69.9996,355.3664,268.9759,91.1022,7.835e-05,8.42e-06,0.0,0 STARLINK-5067,1 55653U 23021AB  24160.71753042  .00000842  00000-0  78350-4 0  9995,2 55653  69.9996 355.3664 0003303 268.9759  91.1022 14.98335773 72780,6950.175,96.107,574.336,569.744,0.0
55653.0,STARLINK-5067,PAYLOAD,2024-06-08 22:01:38,14.98338236,0.000326,69.999,354.862,268.6399,91.4386,0.00016496,1.876e-05,0.0,0 STARLINK-5067,1 55653U 23021AB  24160.91780545  .00001876  00000-0  16496-3 0  9995,2 55653  69.9990 354.8620 0003260 268.6399  91.4386 14.98338236 73110,6950.167,96.106,574.298,569.767,0.0
55653.0,STARLINK-5067,PAYLOAD,2024-06-09 12:26:51,14.98335794,0.0002975,69.9966,353.3469,272.0349,88.0469,-2.2677e-06,-1.2e-06,0.0,0 STARLINK-5067,1 55653U 23021AB  24161.51865273 -.00000120  00000-0 -22677-5 0  9997,2 55653  69.9966 353.3469 0002975 272.0349  88.0469 14.98335794 73204,6950.175,96.107,574.108,569.972,0.0
55653.0,STARLINK-5067,PAYLOAD,2024-06-09 18:51:24,14.98332606,0.0002983,69.9969,352.6737,272.0357,88.0461,-3.1196e-05,-4.65e-06,0.0,0 STARLINK-5067,1 55653U 23021AB  24161.78569448 -.00000465  00000-0 -31196-4 0  9998,2 55653  69.9969 352.6737 0002983 272.0357  88.0461 14.98332606 72946,6950.185,96.107,574.123,569.977,0.0
